NORAD_CAT_ID,OBJECT_NAME,OBJECT_TYPE,EPOCH,MEAN_MOTION,ECCENTRICITY,INCLINATION,RA_OF_ASC_NODE,ARG_OF_PERICENTER,MEAN_ANOMALY,BSTAR,MEAN_MOTION_DOT,MEAN_MOTION_DDOT,TLE_LINE0,TLE_LINE1,TLE_LINE2,SEMIMAJOR_AXIS,PERIOD,APOGEE,PERIGEE,DECAYED
53749.0,STARLINK-4680,PAYLOAD,2022-11-17 22:00:00,15.0880044,0.0001686,53.2172,286.1857,44.7906,105.2648,0.0036919,0.00058896,0.0,0 STARLINK-4680,1 53749U 22107BB  22321.91667824  .00058896  00000-0  36919-2 0  9999,2 53749  53.2172 286.1857 0001686  44.7906 105.2648 15.08800440 11477,6918.001,95.44,541.033,538.7,0.0
53749.0,STARLINK-4680,PAYLOAD,2022-11-18 14:00:01,15.08832688,0.0001633,53.215,283.1859,48.2714,124.9793,-0.0012003,-0.00019336,0.0,0 STARLINK-4680,1 53749U 22107BB  22322.58334491 -.00019336  00000-0 -12003-2 0  9990,2 53749  53.2150 283.1859 0001633  48.2714 124.9793 15.08832688 11579,6917.903,95.438,540.8969999999998,538.638,0.0
53749.0,STARLINK-4680,PAYLOAD,2022-11-18 22:00:00,15.08831847,0.0001626999999999,53.2152,281.6889,54.4468,130.3771,0.0010642,0.00016686,0.0,0 STARLINK-4680,1 53749U 22107BB  22322.91667824  .00016686  00000-0  10642-2 0  9996,2 53749  53.2152 281.6889 0001627  54.4468 130.3771 15.08831847  1308,6917.905,95.438,540.896,538.645,0.0
53749.0,STARLINK-4680,PAYLOAD,2022-11-19 08:00:01,15.08831475,0.0001783,53.2151,279.8201,45.9292,243.3919,0.0022339,0.00035436,0.0,0 STARLINK-4680,1 53749U 22107BB  22323.33334491  .00035436  00000-0  22339-2 0  9994,2 53749  53.2151 279.8201 0001783  45.9292 243.3919 15.08831475 11685,6917.906,95.438,541.005,538.538,0.0
53749.0,STARLINK-4680,PAYLOAD,2022-11-19 14:00:01,15.08898922,0.0001671,53.2163,278.7016,46.3386,161.6737,-0.0096741,-0.00151281,0.0,0 STARLINK-4680,1 53749U 22107BB  22323.58334491 -.00151281  00000-0 -96741-2 0  9998,2 53749  53.2163 278.7016 0001671  46.3386 161.6737 15.08898922  1303,6917.7,95.434,540.721,538.409,0.0
53749.0,STARLINK-4680,PAYLOAD,2022-11-19 22:00:00,15.08811104,0.0001527,53.2154,277.1994,49.1159,170.4962,0.00085835,0.00013388,0.0,0 STARLINK-4680,1 53749U 22107BB  22323.91667824  .00013388  00000-0  85835-3 0  9990,2 53749  53.2154 277.1994 0001527  49.1159 170.4962 15.08811104 11777,6917.969,95.439,540.89,538.7769999999998,0.0
53749.0,STARLINK-4680,PAYLOAD,2022-11-20 14:00:01,15.08838013,0.0001622,53.2157,274.2067,44.4639,198.2826,-0.000666,-0.00010871,0.0,0 STARLINK-4680,1 53749U 22107BB  22324.58334491 -.00010871  00000-0 -66600-3 0  9990,2 53749  53.2157 274.2067 0001622  44.4639 198.2826 15.08838013  1309,6917.886,95.438,540.874,538.629,0.0
53749.0,STARLINK-4680,PAYLOAD,2022-11-20 22:00:00,15.08849023,0.000161,53.216,272.71,49.9356,204.3941,0.00049606,7.618e-05,0.0,0 STARLINK-4680,1 53749U 22107BB  22324.91667824  .00007618  00000-0  49606-3 0  9996,2 53749  53.2160 272.7100 0001610  49.9356 204.3941 15.08849023  1307,6917.853,95.437,540.832,538.604,0.0
53749.0,STARLINK-4680,PAYLOAD,2022-11-21 08:00:01,15.08826368,0.0001761,53.216,270.841,40.7825,318.0587,0.001631,0.00025755,0.0,0 STARLINK-4680,1 53749U 22107BB  22325.33334491  .00025755  00000-0  16310-2 0  9991,2 53749  53.2160 270.8410 0001761  40.7825 318.0587 15.08826368 11999,6917.922,95.438,541.005,538.569,0.0
53749.0,STARLINK-4680,PAYLOAD,2022-11-21 14:00:01,15.08842544,0.0001614,53.2164,269.7172,43.8071,233.7269,-0.00019984,-3.467e-05,0.0,0 STARLINK-4680,1 53749U 22107BB  22325.58334491 -.00003467  00000-0 -19984-3 0  9997,2 53749  53.2164 269.7172 0001614  43.8071 233.7269 15.08842544  1307,6917.873000000001,95.437,540.854,538.621,0.0
53749.0,STARLINK-4680,PAYLOAD,2022-11-21 22:00:00,15.08859576,0.0001589,53.2166,268.2206,48.081,241.0428,0.00019018,2.742e-05,0.0,0 STARLINK-4680,1 53749U 22107BB  22325.91667824  .00002742  00000-0  19018-3 0  9994,2 53749  53.2166 268.2206 0001589  48.0810 241.0428 15.08859576  1302,6917.821,95.436,540.785,538.586,0.0
53749.0,STARLINK-4680,PAYLOAD,2022-11-22 08:00:01,15.08842574,0.0001743,53.2164,266.3515,39.4559,354.1936,-1.4733e-05,-5.23e-06,0.0,0 STARLINK-4680,1 53749U 22107BB  22326.33334491 -.00000523  00000-0 -14733-4 0  9999,2 53749  53.2164 266.3515 0001743  39.4559 354.1936 15.08842574 12142,6917.873000000001,95.437,540.943,538.5319999999998,0.0
53749.0,STARLINK-4680,PAYLOAD,2022-11-22 14:00:01,15.08839088,0.0001621,53.2168,265.2277,44.8155,267.599,-0.0020651,-0.00033003,0.0,0 STARLINK-4680,1 53749U 22107BB  22326.58335648 -.00033003  00000-0 -20651-2 0  9994,2 53749  53.2168 265.2277 0001621  44.8155 267.5990 15.08839088  1305,6917.8830000000025,95.438,540.87,538.627,0.0
53749.0,STARLINK-4680,PAYLOAD,2022-11-22 22:00:00,15.08834826,0.0001643,53.217,263.7315,49.265,274.6585,-0.00042336,-7.019e-05,0.0,0 STARLINK-4680,1 53749U 22107BB  22326.91667824 -.00007019  00000-0 -42336-3 0  9998,2 53749  53.2170 263.7315 0001643  49.2650 274.6585 15.08834826  1301,6917.896,95.438,540.898,538.625,0.0
53749.0,STARLINK-4680,PAYLOAD,2022-11-23 08:00:01,15.08822798,0.0001813,53.2165,261.8624,42.8709,25.5353,0.0021732,0.00034452,0.0,0 STARLINK-4680,1 53749U 22107BB  22327.33334491  .00034452  00000-0  21732-2 0  9991,2 53749  53.2165 261.8624 0001813  42.8709  25.5353 15.08822798 12291,6917.933000000001,95.439,541.052,538.544,0.0
53749.0,STARLINK-4680,PAYLOAD,2022-11-23 14:00:01,15.08842031,0.0001685,53.2167,260.7388,49.2139,297.8846,-0.00044353,-7.340000000000001e-05,0.0,0 STARLINK-4680,1 53749U 22107BB  22327.58334491 -.00007340  00000-0 -44353-3 0  9991,2 53749  53.2167 260.7388 0001685  49.2139 297.8846 15.08842031  1306,6917.874,95.437,540.905,538.5740000000002,0.0
53749.0,STARLINK-4680,PAYLOAD,2022-11-23 22:00:00,15.08846323,0.0001763,53.2169,259.2428,53.1314,305.5569,-0.002086,-0.0003334,0.0,0 STARLINK-4680,1 53749U 22107BB  22327.91667824 -.00033340  00000-0 -20860-2 0  9992,2 53749  53.2169 259.2428 0001763  53.1314 305.5569 15.08846323  1309,6917.861,95.437,540.946,538.506,0.0
53749.0,STARLINK-4680,PAYLOAD,2022-11-24 14:00:01,15.08824019,0.0001797,53.2163,256.25,53.6885,328.1718,0.0012444,0.00019563,0.0,0 STARLINK-4680,1 53749U 22107BB  22328.58334491  .00019563  00000-0  12444-2 0  9995,2 53749  53.2163 256.2500 0001797  53.6885 328.1718 15.08824019 12482,6917.929,95.439,541.0369999999998,538.5509999999998,0.0
53749.0,STARLINK-4680,PAYLOAD,2022-11-24 22:00:00,15.08857312,0.0001855,53.2163,254.7542,55.2694,338.1682,-0.0012985999999999,-0.00020906,0.0,0 STARLINK-4680,1 53749U 22107BB  22328.91667824 -.00020906  00000-0 -12986-2 0  9997,2 53749  53.2163 254.7542 0001855  55.2694 338.1682 15.08857312  1304,6917.8269999999975,95.436,540.976,538.409,0.0
53749.0,STARLINK-4680,PAYLOAD,2022-11-25 14:00:01,15.08832969,0.0001776999999999,53.2157,251.7611,54.1504,2.5113,0.00048926,7.506e-05,0.0,0 STARLINK-4680,1 53749U 22107BB  22329.58334491  .00007506  00000-0  48926-3 0  9995,2 53749  53.2157 251.7611 0001777  54.1504   2.5113 15.08832969 12632,6917.901999999999,95.438,540.996,538.538,0.0
53749.0,STARLINK-4680,PAYLOAD,2022-11-25 22:00:00,15.08859983,0.0001853,53.2156,250.2654,54.53,13.7178,-0.0011137,-0.00017979,0.0,0 STARLINK-4680,1 53749U 22107BB  22329.91667824 -.00017979  00000-0 -11137-2 0  9991,2 53749  53.2156 250.2654 0001853  54.5300  13.7178 15.08859983  1307,6917.819,95.436,540.966,538.4019999999998,0.0
53749.0,STARLINK-4680,PAYLOAD,2022-11-26 14:00:01,15.08851069,0.0001757,53.2152,247.272,52.4471,39.0408,-0.00011972,-2.194e-05,0.0,0 STARLINK-4680,1 53749U 22107BB  22330.58334491 -.00002194  00000-0 -11972-3 0  9998,2 53749  53.2152 247.2720 0001757  52.4471  39.0408 15.08851069  1306,6917.847,95.437,540.927,538.496,0.0
53749.0,STARLINK-4680,PAYLOAD,2022-11-26 22:00:00,15.08865669,0.0001798,53.2151,245.7763,51.1927,51.8982,-0.0036486,-0.0005792999999999,0.0,0 STARLINK-4680,1 53749U 22107BB  22330.91667824 -.00057930  00000-0 -36486-2 0  9998,2 53749  53.2151 245.7763 0001798  51.1927  51.8982 15.08865669 12832,6917.802,95.436,540.911,538.423,0.0
53749.0,STARLINK-4680,PAYLOAD,2022-11-27 14:00:01,15.08798316,0.0001676999999999,53.215,242.7828,47.5059,78.7736,0.0027075,0.00043016,0.0,0 STARLINK-4680,1 53749U 22107BB  22331.58334491  .00043016  00000-0  27075-2 0  9995,2 53749  53.2150 242.7828 0001677  47.5059  78.7736 15.08798316  1300,6918.0080000000025,95.44,541.033,538.7130000000002,0.0
53749.0,STARLINK-4680,PAYLOAD,2022-11-27 22:00:00,15.08840338,0.0001814,53.2151,241.2872,48.2486,89.5889,-0.001318,-0.00021203,0.0,0 STARLINK-4680,1 53749U 22107BB  22331.91667824 -.00021203  00000-0 -13180-2 0  9999,2 53749  53.2151 241.2872 0001814  48.2486  89.5889 15.08840338  1300,6917.879,95.438,540.999,538.489,0.0
53749.0,STARLINK-4680,PAYLOAD,2022-11-28 08:00:01,15.08856014,0.0001855,53.2149,239.4172,43.2892,199.0298,-0.0031515,-0.00050118,0.0,0 STARLINK-4680,1 53749U 22107BB  22332.33334491 -.00050118  00000-0 -31515-2 0  9996,2 53749  53.2149 239.4172 0001855  43.2892 199.0298 15.08856014 13043,6917.831,95.437,540.98,538.413,0.0
53749.0,STARLINK-4680,PAYLOAD,2022-11-28 22:00:01,15.08845972,0.0001836,53.2153,236.798,46.8622,125.7961,-0.0010916,-0.00017622,0.0,0 STARLINK-4680,1 53749U 22107BB  22332.91668981 -.00017622  00000-0 -10916-2 0  9999,2 53749  53.2153 236.7980 0001836  46.8622 125.7961 15.08845972  1304,6917.861999999999,95.437,540.997,538.457,0.0
53749.0,STARLINK-4680,PAYLOAD,2022-11-29 14:00:01,15.0882526,0.0001738,53.2153,233.8041,47.4134,148.4537,0.00014836,2.073e-05,0.0,0 STARLINK-4680,1 53749U 22107BB  22333.58335648  .00002073  00000-0  14836-3 0  9992,2 53749  53.2153 233.8041 0001738  47.4134 148.4537 15.08825260  1305,6917.925,95.438,540.993,538.5880000000002,0.0
53749.0,STARLINK-4680,PAYLOAD,2022-11-29 22:00:00,15.08826145,0.0001898,53.2155,232.3089,47.718,159.6676,-0.0016245,-0.0002604,0.0,0 STARLINK-4680,1 53749U 22107BB  22333.91667824 -.00026040  00000-0 -16245-2 0  9990,2 53749  53.2155 232.3089 0001898  47.7180 159.6676 15.08826145 13285,6917.9230000000025,95.438,541.101,538.475,0.0
